NOAA 1 [-]              
1 04793U 70106A   22364.40794789 -.00000051  00000+0 -42337-4 0  9992
2 04793 101.5314  63.0825 0031238 300.7410  69.5819 12.54010296382153
NOAA 2 (ITOS-D) [-]     
1 06235U 72082A   22364.54242786 -.00000021  00000+0  15769-3 0  9994
2 06235 101.9764 348.1546 0004212  60.4122  50.9091 12.53155382296535
NOAA 3 [-]              
1 06920U 73086A   22364.55345528 -.00000022  00000+0  17937-3 0  9999
2 06920 102.2312 346.8295 0006519 291.0466 188.4004 12.40351510225103
NOAA 4 [-]              
1 07529U 74089A   22365.40882628 -.00000012  00000+0  21502-3 0  9993
2 07529 101.9386 345.7946 0009156  86.7485  70.3138 12.53163872201463
NOAA 5 [-]              
1 09057U 76077A   22365.38493281 -.00000015  00000+0  22973-3 0  9996
2 09057 102.1299 331.4752 0009660 134.6477  20.0291 12.37777718 98332
TIROS N [-]             
1 11060U 78096A   22364.73255444  .00000166  00000+0  10123-3 0  9991
2 11060  98.6100  53.0121 0009615 300.7955  59.2274 14.18456307499679
NOAA 6 [-]              
1 11416U 79057A   22364.49665351  .00000306  00000+0  12595-3 0  9990
2 11416  98.6598  15.6287 0011068  44.6991 315.5083 14.33864474269611
NOAA 7 [-]              
1 12553U 81059A   22364.55172425  .00000042  00000+0  43450-4 0  9992
2 12553  98.9737  51.1419 0010507 278.7114  81.2870 14.17364639145577
NOAA 8 [-]              
1 13923U 83022A   22364.50153296  .00000175  00000+0  86962-4 0  9998
2 13923  98.7022 354.4394 0015105   0.3960 359.7230 14.28872341 70400
NOAA 9 [-]              
1 15427U 84123A   22365.50155394  .00000176  00000+0  11211-3 0  9999
2 15427  99.0714 341.2314 0014426 330.6661 137.5459 14.16261413964733
NOAA 10 [-]             
1 16969U 86073A   22364.55094212  .00000153  00000+0  78652-4 0  9990
2 16969  98.5879 347.2921 0013278  97.1919  14.3685 14.28259573888821
NOAA 11 [-]             
1 19531U 88089A   22364.52149748  .00000066  00000+0  54970-4 0  9999
2 19531  98.4455 343.0287 0010744 339.5047  20.5695 14.15342963768556
NOAA 12 [-]             
1 21263U 91032A   22364.53472966  .00000104  00000+0  61458-4 0  9990
2 21263  98.5236 358.9516 0014575 123.1760 237.0820 14.26040165644676
NOAA 13 [-]             
1 22739U 93050A   22364.54143200  .00000146  00000+0  10037-3 0  9990
2 22739  98.5307 334.8068 0010165 137.3310 222.8654 14.12895224514748
NOAA 14 [-]             
1 23455U 94089A   22364.53445729  .00000044  00000+0  44244-4 0  9994
2 23455  98.4346  20.5011 0010484 117.7075 242.5164 14.14227102444425
NOAA 15 [B]             
1 25338U 98030A   22365.49214179  .00000172  00000+0  89756-4 0  9994
2 25338  98.6254  32.2639 0011414  84.1638 276.0843 14.26214747281350
NOAA 16 [-]             
1 26536U 00055A   22364.49595976  .00000075  00000+0  62410-4 0  9991
2 26536  98.6109  56.3740 0009876 331.0500  29.0125 14.13369551445048
NOAA 17 [-]             
1 27453U 02032A   22365.22558372  .00000188  00000+0  98586-4 0  9996
2 27453  98.6967 308.4034 0012821  62.1159 298.1317 14.25183887 66895
NOAA 18 [B]             
1 28654U 05018A   22365.44453857  .00000245  00000+0  15537-3 0  9991
2 28654  98.9299  75.5297 0015063 132.8002 227.4439 14.12830839907881
NOAA 19 [+]             
1 33591U 09005A   22365.53926768  .00000211  00000+0  13879-3 0  9993
2 33591  99.1252  43.5945 0013781 358.4671   1.6455 14.12659168716272
SUOMI NPP [+]           
1 37849U 11061A   22365.43165920  .00000102  00000+0  69127-4 0  9999
2 37849  98.7536 301.4121 0001370  87.0246  50.9506 14.19530430579131
NOAA 20 [+]             
1 43013U 17073A   22365.57990431  .00000097  00000+0  66969-4 0  9990
2 43013  98.7374 301.2080 0001002 116.2762 243.8517 14.19540130265194
NOAA 21 (JPSS-2) [+]    
1 54234U 22150A   22365.59775094  .00000112  00000+0  73793-4 0  9998
2 54234  98.7014 301.3167 0001104  86.1488 273.9814 14.19550323  7274
